{
  "type": "FeatureCollection",
  "features": [
    {
      "type": "Feature",
      "properties": {
        "norad_id": 30342,
        "name": "FENGYUN 1C DEB",
        "group": "fengyun-1c-debris",
        "lat": 35.49198504620384,
        "lon": 155.66659741269035,
        "alt_km": 967.6958164916596,
        "timestamp": "2025-12-09T18:55:17.507598+00:00",
        "meta_object_name": "FENGYUN 1C DEB",
        "meta_object_id": "1999-025ABD",
        "meta_epoch": "2025-12-09T12:06:09.457632",
        "meta_mean_motion": 13.80036994,
        "meta_eccentricity": 0.01682622,
        "meta_inclination": 100.1956,
        "meta_ra_of_asc_node": 162.7335,
        "meta_arg_of_pericenter": 130.9389,
        "meta_mean_anomaly": 296.4032,
        "meta_ephemeris_type": 0,
        "meta_classification_type": "U",
        "meta_norad_cat_id": 30342,
        "meta_element_set_no": 999,
        "meta_rev_at_epoch": 94844,
        "meta_bstar": 0.0010784577,
        "meta_mean_motion_dot": 1.197e-05,
        "meta_mean_motion_ddot": 0,
        "tle_line1": "1 30342U 99025ABD 25343.50427613  .00001197  00000+0  10785-2 0  9992",
        "tle_line2": "2 30342 100.1956 162.7335 0168262 130.9389 296.4032 13.80036994948449"
      },
      "geometry": {
        "type": "Point",
        "coordinates": [
          155.66659741269035,
          35.49198504620384
        ]
      }
    },
    {
      "type": "Feature",
      "properties": {
        "norad_id": 30344,
        "name": "FENGYUN 1C DEB",
        "group": "fengyun-1c-debris",
        "lat": 79.9650056562638,
        "lon": 4.386661529168643,
        "alt_km": 708.5778132953792,
        "timestamp": "2025-12-09T18:55:17.507608+00:00",
        "meta_object_name": "FENGYUN 1C DEB",
        "meta_object_id": "1999-025ABF",
        "meta_epoch": "2025-12-09T03:54:59.634144",
        "meta_mean_motion": 14.51641184,
        "meta_eccentricity": 0.00082334,
        "meta_inclination": 98.8182,
        "meta_ra_of_asc_node": 65.0433,
        "meta_arg_of_pericenter": 130.4804,
        "meta_mean_anomaly": 289.3943,
        "meta_ephemeris_type": 0,
        "meta_classification_type": "U",
        "meta_norad_cat_id": 30344,
        "meta_element_set_no": 999,
        "meta_rev_at_epoch": 98025,
        "meta_bstar": 0.0030026319,
        "meta_mean_motion_dot": 0.00012014,
        "meta_mean_motion_ddot": 0,
        "tle_line1": "1 30344U 99025ABF 25343.16319021  .00012014  00000+0  30026-2 0  9999",
        "tle_line2": "2 30344  98.8182  65.0433 0008233 130.4804 289.3943 14.51641184980256"
      },
      "geometry": {
        "type": "Point",
        "coordinates": [
          4.386661529168643,
          79.9650056562638
        ]
      }
    },
    {
      "type": "Feature",
      "properties": {
        "norad_id": 30345,
        "name": "FENGYUN 1C DEB",
        "group": "fengyun-1c-debris",
        "lat": -57.05060546377472,
        "lon": -150.995498471684,
        "alt_km": 748.4940272912618,
        "timestamp": "2025-12-09T18:55:17.507618+00:00",
        "meta_object_name": "FENGYUN 1C DEB",
        "meta_object_id": "1999-025ABG",
        "meta_epoch": "2025-12-09T02:49:38.490240",
        "meta_mean_motion": 14.41584244,
        "meta_eccentricity": 0.00169178,
        "meta_inclination": 98.9204,
        "meta_ra_of_asc_node": 42.3283,
        "meta_arg_of_pericenter": 252.4548,
        "meta_mean_anomaly": 107.4791,
        "meta_ephemeris_type": 0,
        "meta_classification_type": "U",
        "meta_norad_cat_id": 30345,
        "meta_element_set_no": 999,
        "meta_rev_at_epoch": 97721,
        "meta_bstar": 0.002417342,
        "meta_mean_motion_dot": 7.837e-05,
        "meta_mean_motion_ddot": 0,
        "tle_line1": "1 30345U 99025ABG 25343.11780660  .00007837  00000+0  24173-2 0  9999",
        "tle_line2": "2 30345  98.9204  42.3283 0016917 252.4548 107.4791 14.41584244977217"
      },
      "geometry": {
        "type": "Point",
        "coordinates": [
          -150.995498471684,
          -57.05060546377472
        ]
      }
    },
    {
      "type": "Feature",
      "properties": {
        "norad_id": 30346,
        "name": "FENGYUN 1C DEB",
        "group": "fengyun-1c-debris",
        "lat": 32.05370340714274,
        "lon": 74.86693667786653,
        "alt_km": 737.2064398929715,
        "timestamp": "2025-12-09T18:55:17.507628+00:00",
        "meta_object_name": "FENGYUN 1C DEB",
        "meta_object_id": "1999-025ABH",
        "meta_epoch": "2025-12-09T05:37:20.979840",
        "meta_mean_motion": 14.338347,
        "meta_eccentricity": 0.0055605,
        "meta_inclination": 98.8084,
        "meta_ra_of_asc_node": 79.8747,
        "meta_arg_of_pericenter": 34.5139,
        "meta_mean_anomaly": 19.3944,
        "meta_ephemeris_type": 0,
        "meta_classification_type": "U",
        "meta_norad_cat_id": 30346,
        "meta_element_set_no": 999,
        "meta_rev_at_epoch": 97363,
        "meta_bstar": 0.0027039,
        "meta_mean_motion_dot": 7.618e-05,
        "meta_mean_motion_ddot": 0,
        "tle_line1": "1 30346U 99025ABH 25343.23427060  .00007618  00000+0  27039-2 0  9996",
        "tle_line2": "2 30346  98.8084  79.8747 0055605  34.5139  19.3944 14.33834700973634"
      },
      "geometry": {
        "type": "Point",
        "coordinates": [
          74.86693667786653,
          32.05370340714274
        ]
      }
    },
    {
      "type": "Feature",
      "properties": {
        "norad_id": 30347,
        "name": "FENGYUN 1C DEB",
        "group": "fengyun-1c-debris",
        "lat": 37.67787241367536,
        "lon": -5.522796838301878,
        "alt_km": 933.3545450372321,
        "timestamp": "2025-12-09T18:55:17.507638+00:00",
        "meta_object_name": "FENGYUN 1C DEB",
        "meta_object_id": "1999-025ABJ",
        "meta_epoch": "2025-12-09T11:36:50.016672",
        "meta_mean_motion": 13.92766938,
        "meta_eccentricity": 0.01507143,
        "meta_inclination": 98.3768,
        "meta_ra_of_asc_node": 167.6677,
        "meta_arg_of_pericenter": 42.7479,
        "meta_mean_anomaly": 11.4761,
        "meta_ephemeris_type": 0,
        "meta_classification_type": "U",
        "meta_norad_cat_id": 30347,
        "meta_element_set_no": 999,
        "meta_rev_at_epoch": 95915,
        "meta_bstar": 0.00021072914,
        "meta_mean_motion_dot": 2.62e-06,
        "meta_mean_motion_ddot": 0,
        "tle_line1": "1 30347U 99025ABJ 25343.48391223  .00000262  00000+0  21073-3 0  9996",
        "tle_line2": "2 30347  98.3768 167.6677 0150714  42.7479  11.4761 13.92766938959154"
      },
      "geometry": {
        "type": "Point",
        "coordinates": [
          -5.522796838301878,
          37.67787241367536
        ]
      }
    },
    {
      "type": "Feature",
      "properties": {
        "norad_id": 30348,
        "name": "FENGYUN 1C DEB",
        "group": "fengyun-1c-debris",
        "lat": -46.76081679602662,
        "lon": 88.0166911300343,
        "alt_km": 778.1993022931101,
        "timestamp": "2025-12-09T18:55:17.507647+00:00",
        "meta_object_name": "FENGYUN 1C DEB",
        "meta_object_id": "1999-025ABK",
        "meta_epoch": "2025-12-09T06:00:31.219776",
        "meta_mean_motion": 14.35039766,
        "meta_eccentricity": 0.0017322,
        "meta_inclination": 98.8628,
        "meta_ra_of_asc_node": 77.9134,
        "meta_arg_of_pericenter": 28.0569,
        "meta_mean_anomaly": 26.7202,
        "meta_ephemeris_type": 0,
        "meta_classification_type": "U",
        "meta_norad_cat_id": 30348,
        "meta_element_set_no": 999,
        "meta_rev_at_epoch": 97484,
        "meta_bstar": 0.0026678,
        "meta_mean_motion_dot": 7.578e-05,
        "meta_mean_motion_ddot": 0,
        "tle_line1": "1 30348U 99025ABK 25343.25036134  .00007578  00000+0  26678-2 0  9991",
        "tle_line2": "2 30348  98.8628  77.9134 0017322  28.0569  26.7202 14.35039766974842"
      },
      "geometry": {
        "type": "Point",
        "coordinates": [
          88.0166911300343,
          -46.76081679602662
        ]
      }
    },
    {
      "type": "Feature",
      "properties": {
        "norad_id": 30349,
        "name": "FENGYUN 1C DEB",
        "group": "fengyun-1c-debris",
        "lat": -4.8877675215541805,
        "lon": 125.62204012872986,
        "alt_km": 921.5258762940884,
        "timestamp": "2025-12-09T18:55:17.507658+00:00",
        "meta_object_name": "FENGYUN 1C DEB",
        "meta_object_id": "1999-025ABL",
        "meta_epoch": "2025-12-09T11:47:39.717024",
        "meta_mean_motion": 14.11065385,
        "meta_eccentricity": 0.00894813,
        "meta_inclination": 98.5848,
        "meta_ra_of_asc_node": 306.0783,
        "meta_arg_of_pericenter": 21.3511,
        "meta_mean_anomaly": 95.506,
        "meta_ephemeris_type": 0,
        "meta_classification_type": "U",
        "meta_norad_cat_id": 30349,
        "meta_element_set_no": 999,
        "meta_rev_at_epoch": 96185,
        "meta_bstar": 0.0035256161,
        "meta_mean_motion_dot": 6.548e-05,
        "meta_mean_motion_ddot": 0,
        "tle_line1": "1 30349U 99025ABL 25343.49143191  .00006548  00000+0  35256-2 0  9998",
        "tle_line2": "2 30349  98.5848 306.0783 0089481  21.3511  95.5060 14.11065385961851"
      },
      "geometry": {
        "type": "Point",
        "coordinates": [
          125.62204012872986,
          -4.8877675215541805
        ]
      }
    }
  ]
}